NORAD_CAT_ID,OBJECT_NAME,OBJECT_TYPE,EPOCH,MEAN_MOTION,ECCENTRICITY,INCLINATION,RA_OF_ASC_NODE,ARG_OF_PERICENTER,MEAN_ANOMALY,BSTAR,MEAN_MOTION_DOT,MEAN_MOTION_DDOT,TLE_LINE0,TLE_LINE1,TLE_LINE2,SEMIMAJOR_AXIS,PERIOD,APOGEE,PERIGEE,DECAYED
53888.0,STARLINK-5034,PAYLOAD,2023-08-23 02:07:00,15.08841926,0.0001416,53.2183,177.4508,85.6912,274.4242,-7.1946e-06,-4.02e-06,0.0,0 STARLINK-5034,1 53888U 22119C   23235.08820534 -.00000402  00000-0 -71946-5 0  9992,2 53888  53.2183 177.4508 0001416  85.6912 274.4242 15.08841926 50926,6917.875,95.437,540.719,538.76,0.0
53888.0,STARLINK-5034,PAYLOAD,2023-08-24 05:08:34,15.08838826,0.0001479,53.2179,172.397,77.149,282.9668,7.2177e-05,8.61e-06,0.0,0 STARLINK-5034,1 53888U 22119C   23236.21428723  .00000861  00000-0  72177-4 0  9995,2 53888  53.2179 172.3970 0001479  77.1490 282.9668 15.08838826 51511,6917.884,95.438,540.772,538.726,0.0
53888.0,STARLINK-5034,PAYLOAD,2023-08-25 01:48:34,15.08847918,0.0001405,53.2176,168.5313,82.3214,277.7937,2.3351e-05,8.4e-07,0.0,0 STARLINK-5034,1 53888U 22119C   23237.07540315  .00000084  00000-0  23351-4 0  9999,2 53888  53.2176 168.5313 0001405  82.3214 277.7937 15.08847918 51228,6917.856,95.437,540.693,538.749,0.0
53888.0,STARLINK-5034,PAYLOAD,2023-08-25 04:59:20,15.08849827,0.0001395,53.2176,167.936,84.4026,275.7126,3.9031e-05,3.33e-06,0.0,0 STARLINK-5034,1 53888U 22119C   23237.20788062  .00000333  00000-0  39031-4 0  9996,2 53888  53.2176 167.9360 0001395  84.4026 275.7126 15.08849827 51662,6917.85,95.437,540.68,538.75,0.0
53888.0,STARLINK-5034,PAYLOAD,2023-08-26 00:03:59,15.08841452,0.0001247,53.2178,164.3674,85.3773,274.7361,-2.8778e-07,-2.92e-06,0.0,0 STARLINK-5034,1 53888U 22119C   23238.00276654 -.00000292  00000-0 -28778-6 0  9998,2 53888  53.2178 164.3674 0001247  85.3773 274.7361 15.08841452 51361,6917.876,95.437,540.604,538.878,0.0
53888.0,STARLINK-5034,PAYLOAD,2023-08-26 04:50:08,15.08844569,0.0001248,53.2175,163.4751,90.5599,269.5536,2.6617e-05,1.36e-06,0.0,0 STARLINK-5034,1 53888U 22119C   23238.20148321  .00000136  00000-0  26617-4 0  9992,2 53888  53.2175 163.4751 0001248  90.5599 269.5536 15.08844569 51817,6917.866,95.437,540.595,538.868,0.0
53888.0,STARLINK-5034,PAYLOAD,2023-08-27 01:30:08,15.08847966,0.0001433,53.2188,159.6068,107.0435,253.0714,-4.9848e-05,-1.081e-05,0.0,0 STARLINK-5034,1 53888U 22119C   23239.06260314 -.00001081  00000-0 -49848-4 0  9997,2 53888  53.2188 159.6068 0001433 107.0435 253.0714 15.08847966 51526,6917.856,95.437,540.712,538.73,0.0
53888.0,STARLINK-5034,PAYLOAD,2023-08-27 04:40:55,15.08806104,0.0001661,53.2188,159.0121,113.0286,247.0881,0.00050539,7.757e-05,0.0,0 STARLINK-5034,1 53888U 22119C   23239.19509020  .00007757  00000-0  50539-3 0  9993,2 53888  53.2188 159.0121 0001661 113.0286 247.0881 15.08806104 51543,6917.984,95.44,540.998,538.7,0.0
53888.0,STARLINK-5034,PAYLOAD,2023-08-28 02:56:19,15.08849549,0.0001215,53.2185,154.8499,88.5495,271.5637,-0.00014326,-2.568e-05,0.0,0 STARLINK-5034,1 53888U 22119C   23240.12244734 -.00002568  00000-0 -14326-3 0  9997,2 53888  53.2185 154.8499 0001215  88.5495 271.5637 15.08849549 51680,6917.851,95.437,540.557,538.876,0.0
53888.0,STARLINK-5034,PAYLOAD,2023-08-28 04:31:42,15.08837147,0.0001308,53.2188,154.5531,84.0475,276.0666,-3.9503e-06,-3.51e-06,0.0,0 STARLINK-5034,1 53888U 22119C   23240.18869065 -.00000351  00000-0 -39503-5 0  9997,2 53888  53.2188 154.5531 0001308  84.0475 276.0666 15.08837147 51693,6917.889,95.438,540.659,538.849,0.0
53888.0,STARLINK-5034,PAYLOAD,2023-08-28 10:53:15,15.08833758,0.0001439,53.2189,153.3636,83.7129,276.4027,-1.6215e-05,-5.46e-06,0.0,0 STARLINK-5034,1 53888U 22119C   23240.45365417 -.00000546  00000-0 -16215-4 0  9999,2 53888  53.2189 153.3636 0001439  83.7129 276.4027 15.08833758 52155,6917.899,95.438,540.76,538.769,0.0
53888.0,STARLINK-5034,PAYLOAD,2023-08-29 10:44:02,15.0884027,0.0001251,53.2172,148.9056,89.1739,270.9396,-1.3305e-05,-5e-06,0.0,0 STARLINK-5034,1 53888U 22119C   23241.44725186 -.00000500  00000-0 -13305-4 0  9999,2 53888  53.2172 148.9056 0001251  89.1739 270.9396 15.08840270 51886,6917.88,95.438,540.61,538.879,0.0
53888.0,STARLINK-5034,PAYLOAD,2023-08-30 01:02:31,15.08833575,0.0001305,53.2178,146.2303,91.248,268.8662,-1.2293e-06,-3.07e-06,0.0,0 STARLINK-5034,1 53888U 22119C   23242.04341999 -.00000307  00000-0 -12293-5 0  9993,2 53888  53.2178 146.2303 0001305  91.2480 268.8662 15.08833575 51977,6917.9,95.438,540.668,538.862,0.0
53888.0,STARLINK-5034,PAYLOAD,2023-08-30 10:34:50,15.08838857,0.0001274,53.2177,144.4457,91.072,269.0418,2.5211e-05,1.13e-06,0.0,0 STARLINK-5034,1 53888U 22119C   23242.44085653  .00000113  00000-0  25211-4 0  9995,2 53888  53.2177 144.4457 0001274  91.0720 269.0418 15.08838857 52034,6917.884,95.438,540.63,538.868,0.0
53888.0,STARLINK-5034,PAYLOAD,2023-08-31 02:28:40,15.08846959,0.0001261,53.2173,141.471,87.7466,272.3671,5.5014e-05,5.88e-06,0.0,0 STARLINK-5034,1 53888U 22119C   23243.10325110  .00000588  00000-0  55014-4 0  9994,2 53888  53.2173 141.4710 0001261  87.7466 272.3671 15.08846959 52135,6917.859,95.437,540.596,538.852,0.0
53888.0,STARLINK-5034,PAYLOAD,2023-09-01 10:16:24,15.08841427,0.0001109,53.2159,135.5251,89.3402,270.7717,-5.8798e-06,-3.81e-06,0.0,0 STARLINK-5034,1 53888U 22119C   23244.42805557 -.00000381  00000-0 -58798-5 0  9994,2 53888  53.2159 135.5251 0001109  89.3402 270.7717 15.08841427 52332,6917.876,95.437,540.508,538.974,0.0
53888.0,STARLINK-5034,PAYLOAD,2023-09-01 16:37:56,15.08839735,0.0001072,53.2181,134.3369,84.8552,275.2562,5.7763e-05,6.32e-06,0.0,0 STARLINK-5034,1 53888U 22119C   23244.69301464  .00000632  00000-0  57763-4 0  9998,2 53888  53.2181 134.3369 0001072  84.8552 275.2562 15.08839735 52796,6917.881,95.438,540.488,539.005,0.0
53888.0,STARLINK-5034,PAYLOAD,2023-09-01 22:59:27,15.08870229,0.0001376,53.2152,133.1469,79.9978,280.1169,-0.00028654,-4.849e-05,0.0,0 STARLINK-5034,1 53888U 22119C   23244.95796270 -.00004849  00000-0 -28654-3 0  9992,2 53888  53.2152 133.1469 0001376  79.9978 280.1169 15.08870229 52416,6917.788,95.436,540.605,538.701,0.0
53888.0,STARLINK-5034,PAYLOAD,2023-09-02 10:07:10,15.08841601,0.0001101,53.2131,131.0623,100.0596,260.0521,4.9815e-05,5.05e-06,0.0,0 STARLINK-5034,1 53888U 22119C   23245.42165097  .00000505  00000-0  49815-4 0  9998,2 53888  53.2131 131.0623 0001101 100.0596 260.0521 15.08841601 52488,6917.875,95.437,540.502,538.979,0.0
53888.0,STARLINK-5034,PAYLOAD,2023-09-02 16:28:43,15.0884255,0.0001835,53.2137,129.8731,90.0838,270.0364,-5.1087e-05,-1.101e-05,0.0,0 STARLINK-5034,1 53888U 22119C   23245.68661924 -.00001101  00000-0 -51087-4 0  9995,2 53888  53.2137 129.8731 0001835  90.0838 270.0364 15.08842550 52941,6917.873,95.437,541.007,538.468,0.0
53888.0,STARLINK-5034,PAYLOAD,2023-09-03 02:01:02,15.08841454,0.0001837,53.2151,128.0904,84.9528,275.1674,-5.8925e-05,-1.226e-05,0.0,0 STARLINK-5034,1 53888U 22119C   23246.08405960 -.00001226  00000-0 -58925-4 0  9992,2 53888  53.2151 128.0904 0001837  84.9528 275.1674 15.08841454 52582,6917.876,95.437,541.012,538.47,0.0
53888.0,STARLINK-5034,PAYLOAD,2023-09-04 01:51:49,15.08841548,0.0001671,53.2159,123.6295,87.9304,272.1879,-3.0583e-05,-7.75e-06,0.0,0 STARLINK-5034,1 53888U 22119C   23247.07765729 -.00000775  00000-0 -30583-4 0  9992,2 53888  53.2159 123.6295 0001671  87.9304 272.1879 15.08841548 53157,6917.876,95.437,540.897,538.585,0.0
53888.0,STARLINK-5034,PAYLOAD,2023-09-04 16:10:18,15.08831687,0.000158,53.2166,120.9519,98.8323,261.2849,3.6713e-05,2.96e-06,0.0,0 STARLINK-5034,1 53888U 22119C   23247.67382228  .00000296  00000-0  36713-4 0  9994,2 53888  53.2166 120.9519 0001580  98.8323 261.2849 15.08831687 52827,6917.906,95.438,540.864,538.678,0.0
53888.0,STARLINK-5034,PAYLOAD,2023-09-05 00:07:13,15.08836806,0.00016,53.2164,119.4663,89.2592,270.8583,3.4385e-05,2.59e-06,0.0,0 STARLINK-5034,1 53888U 22119C   23248.00502084  .00000259  00000-0  34385-4 0  9998,2 53888  53.2164 119.4663 0001600  89.2592 270.8583 15.08836806 53294,6917.89,95.438,540.862,538.648,0.0
53888.0,STARLINK-5034,PAYLOAD,2023-09-06 01:33:23,15.08840754,0.0001325,53.2175,114.7091,90.1944,269.92,2.4587e-05,1.03e-06,0.0,0 STARLINK-5034,1 53888U 22119C   23249.06486043  .00000103  00000-0  24587-4 0  9992,2 53888  53.2175 114.7091 0001325  90.1944 269.9200 15.08840754 53039,6917.878,95.438,540.66,538.826,0.0
53888.0,STARLINK-5034,PAYLOAD,2023-09-06 23:48:47,15.08841375,0.0001334,53.2174,110.546,88.8404,271.2741,5.1576e-05,5.33e-06,0.0,0 STARLINK-5034,1 53888U 22119C   23249.99222013  .00000533  00000-0  51576-4 0  9994,2 53888  53.2174 110.5460 0001334  88.8404 271.2741 15.08841375 53594,6917.876,95.437,540.664,538.818,0.0
53888.0,STARLINK-5034,PAYLOAD,2023-09-08 01:14:58,15.08838589,0.0001395,53.2167,105.7879,86.3647,273.7505,5.1536e-06,-2.06e-06,0.0,0 STARLINK-5034,1 53888U 22119C   23251.05206416 -.00000206  00000-0  51536-5 0  9998,2 53888  53.2167 105.7879 0001395  86.3647 273.7505 15.08838589 53335,6917.885,95.438,540.715,538.785,0.0
53888.0,STARLINK-5034,PAYLOAD,2023-09-08 21:54:58,15.08842708,0.0001318,53.2175,101.9212,88.5363,271.578,9.2135e-05,1.179e-05,0.0,0 STARLINK-5034,1 53888U 22119C   23251.91317783  .00001179  00000-0  92135-4 0  9991,2 53888  53.2175 101.9212 0001318  88.5363 271.5780 15.08842708 53886,6917.872,95.437,540.649,538.825,0.0
53888.0,STARLINK-5034,PAYLOAD,2023-09-08 23:30:21,15.08843163,0.0001313,53.2175,101.6236,88.8422,271.272,9.6037e-05,1.241e-05,0.0,0 STARLINK-5034,1 53888U 22119C   23251.97941735  .00001241  00000-0  96037-4 0  9992,2 53888  53.2175 101.6236 0001313  88.8422 271.2720 15.08843163 53475,6917.871,95.437,540.644,538.827,0.0
53888.0,STARLINK-5034,PAYLOAD,2023-09-09 07:27:17,15.08840757,0.0001347,53.2173,100.1375,88.1053,272.0094,6.6805e-05,7.75e-06,0.0,0 STARLINK-5034,1 53888U 22119C   23252.31061962  .00000775  00000-0  66805-4 0  9997,2 53888  53.2173 100.1375 0001347  88.1053 272.0094 15.08840757 53942,6917.878,95.438,540.675,538.811,0.0
